[{"OBJECT_NAME":"YAOGAN-30 08C","OBJECT_ID":"2020-076C","EPOCH":"2026-03-09T22:12:19.215360","MEAN_MOTION":15.02142271,"ECCENTRICITY":0.00075536,"INCLINATION":34.9972,"RA_OF_ASC_NODE":335.6323,"ARG_OF_PERICENTER":280.0853,"MEAN_ANOMALY":79.9003,"EPHEMERIS_TYPE":0,"CLASSIFICATION_TYPE":"U","NORAD_CAT_ID":46809,"ELEMENT_SET_NO":999,"REV_AT_EPOCH":29320,"BSTAR":0.00034959402,"MEAN_MOTION_DOT":4.668e-5,"MEAN_MOTION_DDOT":0},{"OBJECT_NAME":"QPS-SAR-15 (SUKUNAMI-I)","OBJECT_ID":"2025-307A","EPOCH":"2026-03-08T23:55:57.082080","MEAN_MOTION":14.98074148,"ECCENTRICITY":0.00081968,"INCLINATION":42.0068,"RA_OF_ASC_NODE":57.7223,"ARG_OF_PERICENTER":56.4325,"MEAN_ANOMALY":303.7282,"EPHEMERIS_TYPE":0,"CLASSIFICATION_TYPE":"U","NORAD_CAT_ID":67228,"ELEMENT_SET_NO":999,"REV_AT_EPOCH":1165,"BSTAR":0.00063967163,"MEAN_MOTION_DOT":7.522e-5,"MEAN_MOTION_DDOT":0}]
